OBJECT_NAME,OBJECT_ID,EPOCH,MEAN_MOTION,ECCENTRICITY,INCLINATION,RA_OF_ASC_NODE,ARG_OF_PERICENTER,MEAN_ANOMALY,EPHEMERIS_TYPE,CLASSIFICATION_TYPE,NORAD_CAT_ID,ELEMENT_SET_NO,REV_AT_EPOCH,BSTAR,MEAN_MOTION_DOT,MEAN_MOTION_DDOT
STARLINK-1569,2020-055N,2026-06-03T07:41:40.909632,15.30182140,.0001487,53.1591,88.9549,90.7161,269.4010,0,U,46039,999,32199,.34885E-3,.9981E-4,0
STARLINK-1582,2020-055S,2026-06-02T02:27:38.191968,15.31697732,.00012408,53.1604,94.0793,91.1257,268.9887,0,U,46043,999,32181,.21170843E-4,.292E-5,0
STARLINK-1591,2020-055U,2026-06-02T02:41:40.272288,15.30189669,.00012566,53.1605,94.5696,93.5274,266.5871,0,U,46045,999,32179,.18814861E-3,.5215E-4,0
STARLINK-1524,2020-055W,2026-06-03T05:54:43.967808,15.31731936,.0001301,53.1611,76.0521,93.4362,266.6788,0,U,46047,999,32217,.42683E-3,.12916E-3,0
STARLINK-1527,2020-055X,2026-06-03T07:21:59.800032,15.31719054,.0001344,53.1615,75.7527,90.0241,270.0914,0,U,46048,999,32215,.31653E-3,.9475E-4,0
STARLINK-1540,2020-055AA,2026-06-03T02:20:00.827520,15.31716492,.00009832,53.1610,76.9374,111.8559,248.2548,0,U,46051,999,32216,.27235283E-3,.81E-4,0
STARLINK-1541,2020-055AB,2026-06-03T14:00:16.998912,15.82558564,.0002787,53.1584,60.1010,204.7844,123.8889,0,U,46052,999,599,.8905E-3,.193686E-2,0
STARLINK-1543,2020-055AC,2026-06-02T02:10:18.661728,15.31709180,.00012466,53.1600,81.4306,103.0831,257.0310,0,U,46053,999,32200,.27268281E-3,.8108E-4,0
STARLINK-1548,2020-055AD,2026-06-02T00:56:30.124320,15.31698248,.00014807,53.1590,81.7436,106.5087,253.6077,0,U,46054,999,32199,.23320894E-4,.358E-5,0
STARLINK-1554,2020-055AE,2026-06-02T00:29:38.541408,15.31698787,.00010533,53.1596,81.7750,83.9914,276.1207,0,U,46055,999,32199,.67148896E-4,.1719E-4,0
STARLINK-1564,2020-055AH,2026-06-01T22:32:11.216544,15.30185609,.00012776,53.1616,83.0389,96.0510,264.0637,0,U,46058,999,32196,-.10552281E-4,-.671E-5,0
STARLINK-1570,2020-055AJ,2026-06-03T02:13:15.058560,15.31713581,.00012242,53.1596,76.6623,138.1981,221.9114,0,U,46059,999,32211,.13590986E-3,.3856E-4,0
STARLINK-1572,2020-055AK,2026-06-03T02:17:46.811616,15.30197660,.00013906,53.1604,77.4086,132.0995,228.0124,0,U,46060,999,32211,.77739595E-4,.1944E-4,0
STARLINK-1573,2020-055AL,2026-06-02T02:23:43.046592,15.31700074,.00013778,53.1601,81.2462,72.4631,287.6520,0,U,46061,999,32200,.20870598E-4,.282E-5,0
STARLINK-1577,2020-055AN,2026-06-01T05:08:31.051392,15.31716679,.00012797,53.1610,85.3698,108.3510,251.7631,0,U,46063,999,32186,.33665723E-3,.10101E-3,0
STARLINK-1583,2020-055AP,2026-06-02T01:50:14.827200,15.31705713,.0001285,53.1627,81.8592,90.0702,270.0447,0,U,46064,999,32198,.1740203E-3,.504E-4,0
STARLINK-1536,2020-055AV,2026-06-02T01:52:06.240864,15.31699765,.00013682,53.1608,69.2434,82.0950,278.0206,0,U,46070,999,32216,.10032329E-3,.2749E-4,0
STARLINK-1542,2020-055AY,2026-06-02T00:53:13.225632,15.31722790,.00014937,53.1635,72.3976,81.8033,278.3138,0,U,46073,999,32210,.2314992E-3,.683E-4,0
STARLINK-1549,2020-055AZ,2026-06-03T05:29:16.943712,15.28961186,.0003647,53.0505,63.9828,100.0331,260.1080,0,U,46074,999,32231,.16841E-2,.47975E-3,0
STARLINK-1551,2020-055BA,2026-06-01T00:22:23.790432,15.30214254,.00010893,53.1589,74.0228,102.4901,257.6222,0,U,46075,999,32199,.18842767E-3,.5228E-4,0
STARLINK-1552,2020-055BB,2026-06-03T05:30:15.280128,15.31703544,.0001249,53.1606,63.4019,68.5827,291.5308,0,U,46076,999,32232,.33472E-3,.10037E-3,0
STARLINK-1559,2020-055BC,2026-05-31T23:18:03.463488,15.37570261,.00022354,53.0247,43.8150,83.6696,276.4560,0,U,46077,999,32236,.14792021E-2,.55356E-3,0
STARLINK-1566,2020-055BE,2026-06-01T03:30:09.756000,15.31716172,.00013525,53.1608,72.9486,107.8889,252.2260,0,U,46079,999,32202,.29964519E-3,.8949E-4,0
STARLINK-1568,2020-055BF,2026-06-02T19:08:38.180832,15.53709043,.00034084,53.0598,344.6508,67.3837,292.7533,0,U,46080,999,32339,.73657701E-3,.47779E-3,0
STARLINK-1578,2020-055BH,2026-06-01T05:10:27.072768,15.31707686,.00013822,53.1606,73.1428,96.8905,263.2254,0,U,46082,999,32202,.26424951E-4,.455E-5,0
STARLINK-1579,2020-055BJ,2026-06-01T04:50:42.661824,15.31721048,.00008786,53.1609,72.7421,82.8095,277.3006,0,U,46083,999,32202,.39479494E-3,.11914E-3,0
BSAT-4B,2020-056A,2026-06-03T12:25:02.436384,1.00269300,.0004139,0.0160,126.3765,344.4516,77.2431,0,U,46112,999,2125,0,0,0
MEV-2,2020-056B,2026-06-03T06:45:31.250016,1.00270345,.0000213,0.0115,351.2611,58.4032,302.4567,0,U,46113,999,8041,0,.1E-7,0
GALAXY 30 (G-30),2020-056C,2026-06-03T13:15:17.252064,1.00271985,.000248,0.0142,18.3338,52.1323,255.3506,0,U,46114,999,2115,0,.49E-6,0
STARLINK-1622,2020-057M,2026-06-03T14:00:16.998912,15.83098772,.0007304,53.0142,157.5378,40.6744,136.7498,0,U,46128,999,600,.52032E-3,.114924E-2,0
