STARLINK-1569           
1 46039U 20055N   26154.32061238  .00009981  00000+0  34885-3 0  9994
2 46039  53.1591  88.9549 0001487  90.7161 269.4010 15.30182140321996
STARLINK-1582           
1 46043U 20055S   26153.10252537  .00000292  00000+0  21171-4 0  9999
2 46043  53.1604  94.0793 0001240  91.1257 268.9887 15.31697732321819
STARLINK-1591           
1 46045U 20055U   26153.11227167  .00005215  00000+0  18815-3 0  9993
2 46045  53.1605  94.5696 0001256  93.5274 266.5871 15.30189669321799
STARLINK-1524           
1 46047U 20055W   26154.24634222  .00012916  00000+0  42683-3 0  9990
2 46047  53.1611  76.0521 0001301  93.4362 266.6788 15.31731936322170
STARLINK-1527           
1 46048U 20055X   26154.30694213  .00009475  00000+0  31653-3 0  9995
2 46048  53.1615  75.7527 0001344  90.0241 270.0914 15.31719054322158
STARLINK-1540           
1 46051U 20055AA  26154.09723180  .00008100  00000+0  27235-3 0  9996
2 46051  53.1610  76.9374 0000983 111.8559 248.2548 15.31716492322166
STARLINK-1541           
1 46052U 20055AB  26154.58353008  .00193686  00000+0  89050-3 0  9996
2 46052  53.1584  60.1010 0002787 204.7844 123.8889 15.82558564  5997
STARLINK-1543           
1 46053U 20055AC  26153.09049377  .00008108  00000+0  27268-3 0  9990
2 46053  53.1600  81.4306 0001246 103.0831 257.0310 15.31709180322006
STARLINK-1548           
1 46054U 20055AD  26153.03923755  .00000358  00000+0  23321-4 0  9992
2 46054  53.1590  81.7436 0001480 106.5087 253.6077 15.31698248321994
STARLINK-1554           
1 46055U 20055AE  26153.02058497  .00001719  00000+0  67149-4 0  9992
2 46055  53.1596  81.7750 0001053  83.9914 276.1207 15.31698787321996
STARLINK-1564           
1 46058U 20055AH  26152.93901871 -.00000671  00000+0 -10552-4 0  9991
2 46058  53.1616  83.0389 0001277  96.0510 264.0637 15.30185609321963
STARLINK-1570           
1 46059U 20055AJ  26154.09253540  .00003856  00000+0  13591-3 0  9995
2 46059  53.1596  76.6623 0001224 138.1981 221.9114 15.31713581322119
STARLINK-1572           
1 46060U 20055AK  26154.09568069  .00001944  00000+0  77740-4 0  9995
2 46060  53.1604  77.4086 0001390 132.0995 228.0124 15.30197660322117
STARLINK-1573           
1 46061U 20055AL  26153.09980378  .00000282  00000+0  20871-4 0  9993
2 46061  53.1601  81.2462 0001377  72.4631 287.6520 15.31700074322004
STARLINK-1577           
1 46063U 20055AN  26152.21424828  .00010101  00000+0  33666-3 0  9997
2 46063  53.1610  85.3698 0001279 108.3510 251.7631 15.31716679321864
STARLINK-1583           
1 46064U 20055AP  26153.07656050  .00005040  00000+0  17402-3 0  9993
2 46064  53.1627  81.8592 0001285  90.0702 270.0447 15.31705713321983
STARLINK-1536           
1 46070U 20055AV  26153.07785001  .00002749  00000+0  10032-3 0  9994
2 46070  53.1608  69.2434 0001368  82.0950 278.0206 15.31699765322163
STARLINK-1542           
1 46073U 20055AY  26153.03695863  .00006830  00000+0  23150-3 0  9999
2 46073  53.1635  72.3976 0001493  81.8033 278.3138 15.31722790322106
STARLINK-1549           
1 46074U 20055AZ  26154.22866833  .00047975  00000+0  16841-2 0  9992
2 46074  53.0505  63.9828 0003647 100.0331 260.1080 15.28961186322310
STARLINK-1551           
1 46075U 20055BA  26152.01555313  .00005228  00000+0  18843-3 0  9996
2 46075  53.1589  74.0228 0001089 102.4901 257.6222 15.30214254321990
STARLINK-1552           
1 46076U 20055BB  26154.22934352  .00010037  00000+0  33472-3 0  9995
2 46076  53.1606  63.4019 0001249  68.5827 291.5308 15.31703544322324
STARLINK-1559           
1 46077U 20055BC  26151.97087342  .00055356  00000+0  14792-2 0  9999
2 46077  53.0247  43.8150 0002235  83.6696 276.4560 15.37570261322361
STARLINK-1566           
1 46079U 20055BE  26152.14594625  .00008949  00000+0  29965-3 0  9993
2 46079  53.1608  72.9486 0001352 107.8889 252.2260 15.31716172322021
STARLINK-1568           
1 46080U 20055BF  26153.79766413  .00047779  00000+0  73658-3 0  9995
2 46080  53.0598 344.6508 0003408  67.3837 292.7533 15.53709043323397
STARLINK-1578           
1 46082U 20055BH  26152.21559112  .00000455  00000+0  26425-4 0  9990
2 46082  53.1606  73.1428 0001382  96.8905 263.2254 15.31707686322026
STARLINK-1579           
1 46083U 20055BJ  26152.20188266  .00011914  00000+0  39479-3 0  9992
2 46083  53.1609  72.7421 0000878  82.8095 277.3006 15.31721048322021
BSAT-4B                 
1 46112U 20056A   26154.51738931  .00000000  00000+0  00000+0 0  9990
2 46112   0.0160 126.3765 0004139 344.4516  77.2431  1.00269300 21252
MEV-2                   
1 46113U 20056B   26154.28161169  .00000001  00000+0  00000+0 0  9999
2 46113   0.0115 351.2611 0000213  58.4032 302.4567  1.00270345 80413
GALAXY 30 (G-30)        
1 46114U 20056C   26154.55228301  .00000049  00000+0  00000+0 0  9994
2 46114   0.0142  18.3338 0002480  52.1323 255.3506  1.00271985 21159
STARLINK-1622           
1 46128U 20057M   26154.58353008  .00114924  00000+0  52032-3 0  9990
2 46128  53.0142 157.5378 0007304  40.6744 136.7498 15.83098772  6007
